SL-14 R/B               
1 16792U 86046B   25328.66191544  .00000515  00000+0  56665-4 0  9997
2 16792  82.4818 179.3864 0022268 212.1211 147.8650 14.85457690110817
SL-14 R/B               
1 16882U 86055B   25328.72811492  .00000625  00000+0  69433-4 0  9994
2 16882  82.5219 225.2949 0018060 323.7436  97.5182 14.85503950103781
AJISAI (EGS)            
1 16908U 86061A   25328.76875670 -.00000090  00000+0  55105-4 0  9990
2 16908  50.0107  55.9755 0011234  20.7759 113.5247 12.44514108454934
COSMOS 1812             
1 17295U 87003A   25328.41328176  .00084827  00000+0  65781-3 0  9992
2 17295  82.4877 311.7935 0006532 112.6906 247.5047 15.71508999127779
SL-14 R/B               
1 17567U 87024B   25328.73341470  .00000511  00000+0  55609-4 0  9991
2 17567  82.5288 191.3684 0016813 246.8087 113.1359 14.85998360 72541
COSMOS 1833             
1 17589U 87027A   25328.73680669 -.00000082  00000+0 -18107-4 0  9991
2 17589  70.9127 186.6223 0021773 357.1300   2.9692 14.13017949995487
SL-16 R/B               
1 17590U 87027B   25328.73264699  .00000207  00000+0  12624-3 0  9998
2 17590  71.0002 137.6616 0007269 278.1574  81.8725 14.17148104   475
SL-14 R/B               
1 17912U 87038B   25328.67449615  .00000581  00000+0  64699-4 0  9999
2 17912  82.5032  35.7141 0020150 148.0802 212.1640 14.85236289 63647
COSMOS 1844             
1 17973U 87041A   25328.24655705  .00000031  00000+0  40950-4 0  9996
2 17973  70.8996 256.5743 0030916 185.6900 174.3875 14.14528067988679
SL-14 R/B               
1 18153U 87055B   25328.60220366  .00000621  00000+0  68951-4 0  9999
2 18153  82.4989  88.0800 0020757   5.2829 354.8602 14.85492422 54335
COSMOS 1867             
1 18187U 87060A   25328.50848264 -.00000021  00000+0  29829-4 0  9990
2 18187  65.0103 241.2559 0013553 269.3850  90.5682 14.31481846  4880
COSMOS 1892             
1 18421U 87088A   25328.54886988  .00805406  37394-3  76234-3 0  9990
2 18421  82.4638  64.2029 0005605 268.8520  91.2122 16.12023617 88405
