CCSDS_OMM_VERS = 2.0
CREATION_DATE  = 
ORIGINATOR     = 

OBJECT_NAME    = SL-14 R/B
OBJECT_ID      = 1986-046B
CENTER_NAME    = EARTH
REF_FRAME      = TEME
TIME_SYSTEM    = UTC
MEAN_ELEMENT_THEORY = SGP/SGP4

EPOCH          = 2025-11-24T15:53:09.494016
MEAN_MOTION    = 14.85457690
ECCENTRICITY   = .0022268
INCLINATION    = 82.4818
RA_OF_ASC_NODE = 179.3864
ARG_OF_PERICENTER = 212.1211
MEAN_ANOMALY   = 147.8650

EPHEMERIS_TYPE = 0
CLASSIFICATION_TYPE = U
NORAD_CAT_ID   = 16792
ELEMENT_SET_NO = 999
REV_AT_EPOCH   = 11081
BSTAR          = .56665E-4
MEAN_MOTION_DOT = .515E-5
MEAN_MOTION_DDOT = 0

CCSDS_OMM_VERS = 2.0
CREATION_DATE  = 
ORIGINATOR     = 

OBJECT_NAME    = SL-14 R/B
OBJECT_ID      = 1986-055B
CENTER_NAME    = EARTH
REF_FRAME      = TEME
TIME_SYSTEM    = UTC
MEAN_ELEMENT_THEORY = SGP/SGP4

EPOCH          = 2025-11-24T17:28:29.129088
MEAN_MOTION    = 14.85503950
ECCENTRICITY   = .001806
INCLINATION    = 82.5219
RA_OF_ASC_NODE = 225.2949
ARG_OF_PERICENTER = 323.7436
MEAN_ANOMALY   = 97.5182

EPHEMERIS_TYPE = 0
CLASSIFICATION_TYPE = U
NORAD_CAT_ID   = 16882
ELEMENT_SET_NO = 999
REV_AT_EPOCH   = 10378
BSTAR          = .69433E-4
MEAN_MOTION_DOT = .625E-5
MEAN_MOTION_DDOT = 0

CCSDS_OMM_VERS = 2.0
CREATION_DATE  = 
ORIGINATOR     = 

OBJECT_NAME    = AJISAI (EGS)
OBJECT_ID      = 1986-061A
CENTER_NAME    = EARTH
REF_FRAME      = TEME
TIME_SYSTEM    = UTC
MEAN_ELEMENT_THEORY = SGP/SGP4

EPOCH          = 2025-11-24T18:27:00.578880
MEAN_MOTION    = 12.44514108
ECCENTRICITY   = .0011234
INCLINATION    = 50.0107
RA_OF_ASC_NODE = 55.9755
ARG_OF_PERICENTER = 20.7759
MEAN_ANOMALY   = 113.5247

EPHEMERIS_TYPE = 0
CLASSIFICATION_TYPE = U
NORAD_CAT_ID   = 16908
ELEMENT_SET_NO = 999
REV_AT_EPOCH   = 45493
BSTAR          = .55105E-4
MEAN_MOTION_DOT = -.9E-6
MEAN_MOTION_DDOT = 0

CCSDS_OMM_VERS = 2.0
CREATION_DATE  = 
ORIGINATOR     = 

OBJECT_NAME    = COSMOS 1812
OBJECT_ID      = 1987-003A
CENTER_NAME    = EARTH
REF_FRAME      = TEME
TIME_SYSTEM    = UTC
MEAN_ELEMENT_THEORY = SGP/SGP4

EPOCH          = 2025-11-24T09:55:07.544064
MEAN_MOTION    = 15.71508999
ECCENTRICITY   = .0006532
INCLINATION    = 82.4877
RA_OF_ASC_NODE = 311.7935
ARG_OF_PERICENTER = 112.6906
MEAN_ANOMALY   = 247.5047

EPHEMERIS_TYPE = 0
CLASSIFICATION_TYPE = U
NORAD_CAT_ID   = 17295
ELEMENT_SET_NO = 999
REV_AT_EPOCH   = 12777
BSTAR          = .65781E-3
MEAN_MOTION_DOT = .84827E-3
MEAN_MOTION_DDOT = 0

CCSDS_OMM_VERS = 2.0
CREATION_DATE  = 
ORIGINATOR     = 

OBJECT_NAME    = SL-14 R/B
OBJECT_ID      = 1987-024B
CENTER_NAME    = EARTH
REF_FRAME      = TEME
TIME_SYSTEM    = UTC
MEAN_ELEMENT_THEORY = SGP/SGP4

EPOCH          = 2025-11-24T17:36:07.030080
MEAN_MOTION    = 14.85998360
ECCENTRICITY   = .0016813
INCLINATION    = 82.5288
RA_OF_ASC_NODE = 191.3684
ARG_OF_PERICENTER = 246.8087
MEAN_ANOMALY   = 113.1359

EPHEMERIS_TYPE = 0
CLASSIFICATION_TYPE = U
NORAD_CAT_ID   = 17567
ELEMENT_SET_NO = 999
REV_AT_EPOCH   = 7254
BSTAR          = .55609E-4
MEAN_MOTION_DOT = .511E-5
MEAN_MOTION_DDOT = 0

CCSDS_OMM_VERS = 2.0
CREATION_DATE  = 
ORIGINATOR     = 

OBJECT_NAME    = COSMOS 1833
OBJECT_ID      = 1987-027A
CENTER_NAME    = EARTH
REF_FRAME      = TEME
TIME_SYSTEM    = UTC
MEAN_ELEMENT_THEORY = SGP/SGP4

EPOCH          = 2025-11-24T17:41:00.098016
MEAN_MOTION    = 14.13017949
ECCENTRICITY   = .0021773
INCLINATION    = 70.9127
RA_OF_ASC_NODE = 186.6223
ARG_OF_PERICENTER = 357.1300
MEAN_ANOMALY   = 2.9692

EPHEMERIS_TYPE = 0
CLASSIFICATION_TYPE = U
NORAD_CAT_ID   = 17589
ELEMENT_SET_NO = 999
REV_AT_EPOCH   = 99548
BSTAR          = -.18107E-4
MEAN_MOTION_DOT = -.82E-6
MEAN_MOTION_DDOT = 0

CCSDS_OMM_VERS = 2.0
CREATION_DATE  = 
ORIGINATOR     = 

OBJECT_NAME    = SL-16 R/B
OBJECT_ID      = 1987-027B
CENTER_NAME    = EARTH
REF_FRAME      = TEME
TIME_SYSTEM    = UTC
MEAN_ELEMENT_THEORY = SGP/SGP4

EPOCH          = 2025-11-24T17:35:00.699936
MEAN_MOTION    = 14.17148104
ECCENTRICITY   = .0007269
INCLINATION    = 71.0002
RA_OF_ASC_NODE = 137.6616
ARG_OF_PERICENTER = 278.1574
MEAN_ANOMALY   = 81.8725

EPHEMERIS_TYPE = 0
CLASSIFICATION_TYPE = U
NORAD_CAT_ID   = 17590
ELEMENT_SET_NO = 999
REV_AT_EPOCH   = 47
BSTAR          = .12624E-3
MEAN_MOTION_DOT = .207E-5
MEAN_MOTION_DDOT = 0

CCSDS_OMM_VERS = 2.0
CREATION_DATE  = 
ORIGINATOR     = 

OBJECT_NAME    = SL-14 R/B
OBJECT_ID      = 1987-038B
CENTER_NAME    = EARTH
REF_FRAME      = TEME
TIME_SYSTEM    = UTC
MEAN_ELEMENT_THEORY = SGP/SGP4

EPOCH          = 2025-11-24T16:11:16.467360
MEAN_MOTION    = 14.85236289
ECCENTRICITY   = .002015
INCLINATION    = 82.5032
RA_OF_ASC_NODE = 35.7141
ARG_OF_PERICENTER = 148.0802
MEAN_ANOMALY   = 212.1640

EPHEMERIS_TYPE = 0
CLASSIFICATION_TYPE = U
NORAD_CAT_ID   = 17912
ELEMENT_SET_NO = 999
REV_AT_EPOCH   = 6364
BSTAR          = .64699E-4
MEAN_MOTION_DOT = .581E-5
MEAN_MOTION_DDOT = 0

CCSDS_OMM_VERS = 2.0
CREATION_DATE  = 
ORIGINATOR     = 

OBJECT_NAME    = COSMOS 1844
OBJECT_ID      = 1987-041A
CENTER_NAME    = EARTH
REF_FRAME      = TEME
TIME_SYSTEM    = UTC
MEAN_ELEMENT_THEORY = SGP/SGP4

EPOCH          = 2025-11-24T05:55:02.529120
MEAN_MOTION    = 14.14528067
ECCENTRICITY   = .0030916
INCLINATION    = 70.8996
RA_OF_ASC_NODE = 256.5743
ARG_OF_PERICENTER = 185.6900
MEAN_ANOMALY   = 174.3875

EPHEMERIS_TYPE = 0
CLASSIFICATION_TYPE = U
NORAD_CAT_ID   = 17973
ELEMENT_SET_NO = 999
REV_AT_EPOCH   = 98867
BSTAR          = .4095E-4
MEAN_MOTION_DOT = .31E-6
MEAN_MOTION_DDOT = 0

CCSDS_OMM_VERS = 2.0
CREATION_DATE  = 
ORIGINATOR     = 

OBJECT_NAME    = SL-14 R/B
OBJECT_ID      = 1987-055B
CENTER_NAME    = EARTH
REF_FRAME      = TEME
TIME_SYSTEM    = UTC
MEAN_ELEMENT_THEORY = SGP/SGP4

EPOCH          = 2025-11-24T14:27:10.396224
MEAN_MOTION    = 14.85492422
ECCENTRICITY   = .0020757
INCLINATION    = 82.4989
RA_OF_ASC_NODE = 88.0800
ARG_OF_PERICENTER = 5.2829
MEAN_ANOMALY   = 354.8602

EPHEMERIS_TYPE = 0
CLASSIFICATION_TYPE = U
NORAD_CAT_ID   = 18153
ELEMENT_SET_NO = 999
REV_AT_EPOCH   = 5433
BSTAR          = .68951E-4
MEAN_MOTION_DOT = .621E-5
MEAN_MOTION_DDOT = 0

CCSDS_OMM_VERS = 2.0
CREATION_DATE  = 
ORIGINATOR     = 

OBJECT_NAME    = COSMOS 1867
OBJECT_ID      = 1987-060A
CENTER_NAME    = EARTH
REF_FRAME      = TEME
TIME_SYSTEM    = UTC
MEAN_ELEMENT_THEORY = SGP/SGP4

EPOCH          = 2025-11-24T12:12:12.900096
MEAN_MOTION    = 14.31481846
ECCENTRICITY   = .0013553
INCLINATION    = 65.0103
RA_OF_ASC_NODE = 241.2559
ARG_OF_PERICENTER = 269.3850
MEAN_ANOMALY   = 90.5682

EPHEMERIS_TYPE = 0
CLASSIFICATION_TYPE = U
NORAD_CAT_ID   = 18187
ELEMENT_SET_NO = 999
REV_AT_EPOCH   = 488
BSTAR          = .29829E-4
MEAN_MOTION_DOT = -.21E-6
MEAN_MOTION_DDOT = 0

CCSDS_OMM_VERS = 2.0
CREATION_DATE  = 
ORIGINATOR     = 

OBJECT_NAME    = COSMOS 1892
OBJECT_ID      = 1987-088A
CENTER_NAME    = EARTH
REF_FRAME      = TEME
TIME_SYSTEM    = UTC
MEAN_ELEMENT_THEORY = SGP/SGP4

EPOCH          = 2025-11-24T13:10:22.357632
MEAN_MOTION    = 16.12023617
ECCENTRICITY   = .0005605
INCLINATION    = 82.4638
RA_OF_ASC_NODE = 64.2029
ARG_OF_PERICENTER = 268.8520
MEAN_ANOMALY   = 91.2122

EPHEMERIS_TYPE = 0
CLASSIFICATION_TYPE = U
NORAD_CAT_ID   = 18421
ELEMENT_SET_NO = 999
REV_AT_EPOCH   = 8840
BSTAR          = .76234E-3
MEAN_MOTION_DOT = .805406E-2
MEAN_MOTION_DDOT = .37394E-3

